[{"OBJECT_NAME":"STARLINK-32747","OBJECT_ID":"2025-008P","EPOCH":"2026-03-09T13:53:31.274880","MEAN_MOTION":15.27596418,"ECCENTRICITY":2.64e-5,"INCLINATION":42.9979,"RA_OF_ASC_NODE":278.88,"ARG_OF_PERICENTER":266.5964,"MEAN_ANOMALY":93.4858,"EPHEMERIS_TYPE":0,"CLASSIFICATION_TYPE":"U","NORAD_CAT_ID":62600,"ELEMENT_SET_NO":999,"REV_AT_EPOCH":6554,"BSTAR":0.00086309,"MEAN_MOTION_DOT":0.00023576,"MEAN_MOTION_DDOT":0},{"OBJECT_NAME":"OBJECT BE","OBJECT_ID":"2025-313BE","EPOCH":"2026-03-09T16:43:59.380320","MEAN_MOTION":15.29801687,"ECCENTRICITY":0.00072083,"INCLINATION":97.3989,"RA_OF_ASC_NODE":145.3568,"ARG_OF_PERICENTER":335.3714,"MEAN_ANOMALY":24.7181,"EPHEMERIS_TYPE":0,"CLASSIFICATION_TYPE":"U","NORAD_CAT_ID":67482,"ELEMENT_SET_NO":999,"REV_AT_EPOCH":797,"BSTAR":0.0026504328,"MEAN_MOTION_DOT":0.00077178,"MEAN_MOTION_DDOT":0}]
