STARLINK-32747          
1 62600U 25008P   26068.57883420  .00023576  00000+0  86309-3 0  9999
2 62600  42.9979 278.8800 0000264 266.5964  93.4858 15.27596418 65544
2025-313BE              
1 67482U 25313BE  26068.69721505  .00077178  00000+0  26504-2 0  9996
2 67482  97.3989 145.3568 0007208 335.3714  24.7181 15.29801687  7972
